{
  "status": "success",
  "hasErrors": false,
  "message": "",
  "length": 155,
  "payload": [
    {
      "_index": "tle",
      "_type": "_doc",
      "_id": "qE9ztXYBAz3ao6c98vHe",
      "_score": 9.150519,
      "_source": {
        "right_ascension": "57.1030",
        "anomaly": "112.0674",
        "calc_anomaly": 112.0674,
        "satellite_number": 10976,
        "calc_mean_motion": 2.22213253,
        "ephemeris": "0",
        "set_number": "212",
        "calc_ballistic_coefficient": 1e-8,
        "epoch": "04119.99543062",
        "international_designator": "78068B",
        "calc_inclination": 21.9344,
        "perigee": "197.1768",
        "revolution_number": "20956",
        "line_number": 12335,
        "calc_perigee": 197.1768,
        "drag": "19086-2",
        "text": "1 10976U 78068B   04119.99543062  .00000001  00000-0  19086-2 0  2120\n2 10976  21.9344  57.1030 7182933 197.1768 112.0674  2.22213253209561",
        "calc_drag": 0.0019086,
        "timestamp": "2004-04-28 23:53:25",
        "inclination": "21.9344",
        "eccentricity": "7182933",
        "classification": "U",
        "calc_right_ascension": 57.103,
        "calc_mean_motion_2": 0,
        "ballistic_coefficient": ".00000001",
        "filename": "tle2004_1of8.txt",
        "calc_eccentricity": 0.7182933,
        "mean_motion": "2.22213253",
        "mean_motion_2": "00000-0"
      }
    },
    {
      "_index": "tle",
      "_type": "_doc",
      "_id": "5d93tXYBwxzt-ZlwBry1",
      "_score": 9.150519,
      "_source": {
        "right_ascension": "073.2132",
        "anomaly": "025.3220",
        "calc_anomaly": 25.322,
        "satellite_number": 10976,
        "calc_mean_motion": 2.2214559,
        "ephemeris": "0",
        "set_number": "060",
        "calc_ballistic_coefficient": -6e-8,
        "epoch": "01124.82241524",
        "international_designator": "78068B",
        "calc_inclination": 21.8843,
        "perigee": "248.9581",
        "revolution_number": "1853",
        "line_number": 201801,
        "calc_perigee": 248.9581,
        "drag": "+10000-3",
        "text": "1 10976U 78068B   01124.82241524 -.00000006  00000-0  10000-3 0   608\n2 10976  21.8843  73.2132 7166965 248.9581  25.3220  2.22145590 18537",
        "calc_drag": 0.0001,
        "timestamp": "2001-05-04 19:44:16",
        "inclination": "021.8843",
        "eccentricity": "7166965",
        "classification": "U",
        "calc_right_ascension": 73.2132,
        "calc_mean_motion_2": 0,
        "ballistic_coefficient": "-.00000006",
        "filename": "tle2004_1of8.txt",
        "calc_eccentricity": 0.7166965,
        "mean_motion": "02.22145590",
        "mean_motion_2": "+00000-0"
      }
    },
    {
      "_index": "tle",
      "_type": "_doc",
      "_id": "Ht91tXYBwxzt-ZlwOHug",
      "_score": 9.150519,
      "_source": {
        "right_ascension": "54.5116",
        "anomaly": "96.9775",
        "calc_anomaly": 96.9775,
        "satellite_number": 10976,
        "calc_mean_motion": 2.22212604,
        "ephemeris": "0",
        "set_number": "216",
        "calc_ballistic_coefficient": -1e-7,
        "epoch": "04127.62699648",
        "international_designator": "78068B",
        "calc_inclination": 21.9618,
        "perigee": "201.8036",
        "revolution_number": "20973",
        "line_number": 33641,
        "calc_perigee": 201.8036,
        "drag": "19086-2",
        "text": "1 10976U 78068B   04127.62699648 -.00000010  00000-0  19086-2 0  2166\n2 10976  21.9618  54.5116 7183342 201.8036  96.9775  2.22212604209737",
        "calc_drag": 0.0019086,
        "timestamp": "2004-05-06 15:02:52",
        "inclination": "21.9618",
        "eccentricity": "7183342",
        "classification": "U",
        "calc_right_ascension": 54.5116,
        "calc_mean_motion_2": 0,
        "ballistic_coefficient": "-.00000010",
        "filename": "tle2004_1of8.txt",
        "calc_eccentricity": 0.7183342,
        "mean_motion": "2.22212604",
        "mean_motion_2": "00000-0"
      }
    },
    {
      "_index": "tle",
      "_type": "_doc",
      "_id": "w1B1tXYBAz3ao6c9vDbe",
      "_score": 9.150519,
      "_source": {
        "right_ascension": "073.0535",
        "anomaly": "025.1572",
        "calc_anomaly": 25.1572,
        "satellite_number": 10976,
        "calc_mean_motion": 2.22145496,
        "ephemeris": "0",
        "set_number": "060",
        "calc_ballistic_coefficient": -1.7e-7,
        "epoch": "01125.27236933",
        "international_designator": "78068B",
        "calc_inclination": 21.8855,
        "perigee": "249.2346",
        "revolution_number": "1853",
        "line_number": 216035,
        "calc_perigee": 249.2346,
        "drag": "+10000-3",
        "text": "1 10976U 78068B   01125.27236933 -.00000017  00000-0  10000-3 0   608\n2 10976  21.8855  73.0535 7166837 249.2346  25.1572  2.22145496 18539",
        "calc_drag": 0.0001,
        "timestamp": "2001-05-05 06:32:12",
        "inclination": "021.8855",
        "eccentricity": "7166837",
        "classification": "U",
        "calc_right_ascension": 73.0535,
        "calc_mean_motion_2": 0,
        "ballistic_coefficient": "-.00000017",
        "filename": "tle2004_1of8.txt",
        "calc_eccentricity": 0.7166837,
        "mean_motion": "02.22145496",
        "mean_motion_2": "+00000-0"
      }
    },
    {
      "_index": "tle",
      "_type": "_doc",
      "_id": "id93tXYBwxzt-ZlwxO6M",
      "_score": 9.150519,
      "_source": {
        "right_ascension": "073.4986",
        "anomaly": "025.6549",
        "calc_anomaly": 25.6549,
        "satellite_number": 10976,
        "calc_mean_motion": 2.22145312,
        "ephemeris": "0",
        "set_number": "060",
        "calc_ballistic_coefficient": 1e-7,
        "epoch": "01123.92251743",
        "international_designator": "78068B",
        "calc_inclination": 21.8811,
        "perigee": "248.4270",
        "revolution_number": "1853",
        "line_number": 186925,
        "calc_perigee": 248.427,
        "drag": "+10000-3",
        "text": "1 10976U 78068B   01123.92251743 +.00000010  00000-0  10000-3 0   606\n2 10976  21.8811  73.4986 7167014 248.4270  25.6549  2.22145312 18536",
        "calc_drag": 0.0001,
        "timestamp": "2001-05-03 22:08:25",
        "inclination": "021.8811",
        "eccentricity": "7167014",
        "classification": "U",
        "calc_right_ascension": 73.4986,
        "calc_mean_motion_2": 0,
        "ballistic_coefficient": "+.00000010",
        "filename": "tle2004_1of8.txt",
        "calc_eccentricity": 0.7167014,
        "mean_motion": "02.22145312",
        "mean_motion_2": "+00000-0"
      }
    },
    {
      "_index": "tle",
      "_type": "_doc",
      "_id": "d1B4tXYBAz3ao6c9k-FQ",
      "_score": 9.150519,
      "_source": {
        "right_ascension": "49.3024",
        "anomaly": "72.1149",
        "calc_anomaly": 72.1149,
        "satellite_number": 10976,
        "calc_mean_motion": 2.22212651,
        "ephemeris": "0",
        "set_number": "225",
        "calc_ballistic_coefficient": -3.5e-7,
        "epoch": "04142.89681325",
        "international_designator": "78068B",
        "calc_inclination": 22.0086,
        "perigee": "211.1802",
        "revolution_number": "21007",
        "line_number": 139063,
        "calc_perigee": 211.1802,
        "drag": "19086-2",
        "text": "1 10976U 78068B   04142.89681325 -.00000035  00000-0  19086-2 0  2252\n2 10976  22.0086  49.3024 7186314 211.1802  72.1149  2.22212651210077",
        "calc_drag": 0.0019086,
        "timestamp": "2004-05-21 21:31:24",
        "inclination": "22.0086",
        "eccentricity": "7186314",
        "classification": "U",
        "calc_right_ascension": 49.3024,
        "calc_mean_motion_2": 0,
        "ballistic_coefficient": "-.00000035",
        "filename": "tle2004_1of8.txt",
        "calc_eccentricity": 0.7186314,
        "mean_motion": "2.22212651",
        "mean_motion_2": "00000-0"
      }
    },
    {
      "_index": "tle",
      "_type": "_doc",
      "_id": "C-B5tXYBwxzt-ZlwMWEw",
      "_score": 9.150519,
      "_source": {
        "right_ascension": "50.1731",
        "anomaly": "76.0678",
        "calc_anomaly": 76.0678,
        "satellite_number": 10976,
        "calc_mean_motion": 2.22213513,
        "ephemeris": "0",
        "set_number": "223",
        "calc_ballistic_coefficient": -8.6e-7,
        "epoch": "04140.20159603",
        "international_designator": "78068B",
        "calc_inclination": 21.997,
        "perigee": "209.5882",
        "revolution_number": "21001",
        "line_number": 122085,
        "calc_perigee": 209.5882,
        "drag": "19086-2",
        "text": "1 10976U 78068B   04140.20159603 -.00000086  00000-0  19086-2 0  2238\n2 10976  21.9970  50.1731 7185861 209.5882  76.0678  2.22213513210019",
        "calc_drag": 0.0019086,
        "timestamp": "2004-05-19 04:50:17",
        "inclination": "21.9970",
        "eccentricity": "7185861",
        "classification": "U",
        "calc_right_ascension": 50.1731,
        "calc_mean_motion_2": 0,
        "ballistic_coefficient": "-.00000086",
        "filename": "tle2004_1of8.txt",
        "calc_eccentricity": 0.7185861,
        "mean_motion": "2.22213513",
        "mean_motion_2": "00000-0"
      }
    }
  ]
}